COSMOS 2503             
1 40420U 15009A   26068.69626972  .00002817  00000+0  19590-3 0  9998
2 40420  97.8437 123.7175 0015321 225.7450 134.2520 15.06275973603958
STARLINK-3813           
1 52482U 22049AH  26068.17648593  .00000249  00000+0  33725-4 0  9991
2 52482  53.2177  51.4238 0001372  91.1282 268.9867 15.08838651212317
